MOLNIYA 2-9             
1 07276U 74026A   22320.17815775  .00000140  00000+0  00000+0 0  9994
2 07276  64.2792 206.2125 6422713 279.3556  18.1139  2.45096295253100
MOLNIYA 2-10            
1 07376U 74056A   22318.57125365  .00000993  00000+0  00000+0 0  9994
2 07376  64.3184  79.1548 6759297 285.5197  13.7392  2.01086272353371
MOLNIYA 1-S             
1 07392U 74060A   22321.11747595  .00000131  00000+0  00000+0 0  9990
2 07392   4.7343 280.6408 0010933 217.0619  10.2225  1.00225739121043
MOLNIYA 1-29            
1 07780U 75036A   22319.71134383  .00000012  00000+0 -86234-1 0  9997
2 07780  63.4135 198.6347 6839474 288.1565  12.5705  2.00601741348657
MOLNIYA 2-14            
1 08195U 75081A   22319.60346848 -.00000727  00000+0  00000+0 0  9995
2 08195  63.3932 171.9362 6755981 292.3879  11.9275  2.02100871345942
MOLNIYA 1-32            
1 08601U 76006A   22318.01586037  .00001241  00000+0  00000+0 0  9996
2 08601  63.4979 277.0942 7192669 283.8849  11.3846  1.99977673341995
MOLNIYA 1-36            
1 09880U 77021A   22319.76419739 -.00001403  00000+0  00000+0 0  9992
2 09880  63.4945 248.9136 7110142 289.5762  10.6008  2.00777119232406
MOLNIYA 3-8             
1 10455U 77105A   22320.01583302 -.00001503  00000+0  77728-5 0  9991
2 10455  63.4328 334.8872 7348588 282.4637  10.7209  2.00675311330182
MOLNIYA 1-40            
1 10925U 78055A   22319.21952208 -.00000421  00000+0  00000+0 0  9994
2 10925  63.5017  26.6321 7271885 280.7121  11.7237  2.00726833325709
MOLNIYA 3-10            
1 11057U 78095A   22320.59375382 -.00000124  00000+0 -48075-3 0  9999
2 11057  63.2392 343.3578 5783970 311.4849  11.5979  4.09865319389965
MOLNIYA 3-13            
1 11896U 80063A   22319.48098450 -.00000019  00000+0  00000+0 0  9996
2 11896  62.7423 117.9341 7135063 276.5122  13.8108  2.00652447310125
MOLNIYA 1-49            
1 12156U 81009A   22315.97929251 -.00000752  00000+0  14109-2 0  9991
2 12156  61.6961 142.7678 7307982 264.5672  16.3760  2.05707543224520
MOLNIYA 1-52            
1 13012U 81123A   22319.93900471  .00001409  00000+0  13997-1 0  9995
2 13012  61.6459 256.8974 7214108 256.9095  20.5038  2.00466527299617
MOLNIYA 1-53            
1 13070U 82015A   22320.60322387 -.00001104  00000+0 -17878-1 0  9996
2 13070  62.5726 195.6337 6994312 283.0213  12.9767  2.00534193298309
MOLNIYA 3-20            
1 13875U 83015A   22320.13365305  .00001223  00000+0  19954-2 0  9993
2 13875  62.6532 328.6831 7392503 259.5484  17.4798  2.00754094226756
MOLNIYA 1-56            
1 13890U 83019A   22320.25210331  .00001769  00000+0  90506-3 0  9993
2 13890  62.9128 353.6174 7451674 265.3618  14.7797  1.99936419289639
MOLNIYA 1-63            
1 15429U 84124A   22319.99354858 -.00000469  00000+0  00000+0 0  9996
2 15429  63.7566 153.1501 6685444 258.5613 345.0519  2.00843640277795
MOLNIYA 3-24            
1 15738U 85040A   22318.37895431  .00000013  00000+0  15709-2 0  9994
2 15738  63.6182  54.6206 6848957 247.2379  30.2572  2.55628301307704
MOLNIYA 3-27            
1 16393U 85117A   22319.82948119 -.00000020  00000+0  00000+0 0  9994
2 16393  64.3332  61.5428 7033946 247.4969  27.8053  2.12397261277390
MOLNIYA 1-69            
1 17078U 86089A   22315.38122608  .00000551  00000+0  00000+0 0  9996
2 17078  63.9932 172.5645 6679674 256.9566  26.0021  2.00696571263773
MOLNIYA 3-31            
1 17328U 87008A   22316.48960289  .00000245  00000+0  00000+0 0  9993
2 17328  63.6920 110.7994 7103972 253.4213  23.4141  2.00677007258862
MOLNIYA 1-71            
1 18946U 88017A   22320.43362412 -.00000060  00000+0  00000+0 0  9991
2 18946  63.3729 103.4062 7218746 256.3184  20.7162  2.00589013254108
MOLNIYA 1-75            
1 19807U 89014A   22317.67585065 -.00000135  00000+0  00000+0 0  9992
2 19807  64.0005 268.3377 6809614 266.2938  20.0774  2.00571943246999
MOLNIYA 1-80            
1 21118U 91012A   22318.20963884  .00000707  00000+0  00000+0 0  9994
2 21118  65.1963 316.7092 6757483 275.7046  16.7402  2.05237788234050
MOLNIYA 3-40            
1 21196U 91022A   22321.03999530 -.00000503  00000+0  00000+0 0  9998
2 21196  65.0915 310.0731 6784095 272.5107  17.7118  2.03025860232755
MOLNIYA 1-81            
1 21426U 91043A   22320.05828014 -.00000215  00000+0  00000+0 0  9996
2 21426  64.0427 324.8524 7078655 266.1750  17.6691  2.00629331230183
MOLNIYA 3-41            
1 21706U 91065A   22319.61152900 -.00000298  00000+0  00000+0 0  9996
2 21706  64.0937 149.3968 6895863 254.4757  25.0926  2.04361413229951
MOLNIYA 3-42            
1 22178U 92067A   22320.76789724  .00000186  00000+0  00000+0 0  9996
2 22178  64.6712 199.9764 6419488 264.5628  24.5565  2.20434631227874
MOLNIYA 1-86            
1 22671U 93035A   22321.00419190  .00000121  00000+0  11898-3 0  9995
2 22671  63.0882 148.1538 4863142   9.5073 357.1639  5.62758134360834
MOLNIYA 1-87            
1 22949U 93079A   22320.37678498 -.00000487  00000+0  00000+0 0  9993
2 22949  64.1281  74.7798 6904069 283.4135  13.4171  2.02882776 78017
MOLNIYA 1-88            
1 23420U 94081A   22319.46777665  .00000116  00000+0  00000+0 0  9994
2 23420  64.2805 162.4797 5795060 280.2393  22.5612  3.34495250118758
MOLNIYA 3-47            
1 23642U 95042A   22320.28657042 -.00000878  00000+0  00000+0 0  9992
2 23642  64.2640  56.3849 6949464 283.6730  13.0590  2.01980489200086
MOLNIYA 1-90            
1 24960U 97054A   22318.71051871  .00000098  00000+0 -14257-2 0  9990
2 24960  63.6764 128.7130 6099743 297.6283  14.0713  3.18687419212796
MOLNIYA 1-91            
1 25485U 98054A   22321.03551041  .00000186  00000+0  22925-2 0  9995
2 25485  63.0948 126.5103 6770294 291.8729 324.8912  2.36442129181986
MOLNIYA 3-50            
1 25847U 99036A   22319.52340852 -.00000304  00000+0 -22047-2 0  9994
2 25847  63.2766 311.3271 7343774 282.4271  10.7535  2.00668993171145
